{
  "type": "FeatureCollection",
  "buildingName": "5_Storey_Cadastral_Building",
  "buildingId": "BLD-5STOREY-GEOREFERENCED",
  "georeference": {
    "latitude": 18.5204,
    "longitude": 73.8567,
    "elevationOffset": 0.0
  },
  "features": [
    {
      "type": "Feature",
      "properties": {
        "id": "A-101",
        "unitNumber": "A-101",
        "floorNumber": 1,
        "area": 80,
        "elevationMeters": 0.0,
        "heightMeters": 3.2,
        "ulpin": "14-4012-0001-3D-F01-A101"
      },
      "geometry": {
        "type": "Polygon",
        "coordinates": [[[0, 0], [10, 0], [10, 8], [0, 8], [0, 0]]]
      }
    },
    {
      "type": "Feature",
      "properties": {
        "id": "B-101",
        "unitNumber": "B-101",
        "floorNumber": 1,
        "area": 80,
        "elevationMeters": 0.0,
        "heightMeters": 3.2,
        "ulpin": "14-4012-0001-3D-F01-B101"
      },
      "geometry": {
        "type": "Polygon",
        "coordinates": [[[10, 0], [20, 0], [20, 8], [10, 8], [10, 0]]]
      }
    },
    {
      "type": "Feature",
      "properties": {
        "id": "C-101",
        "unitNumber": "C-101",
        "floorNumber": 1,
        "area": 80,
        "elevationMeters": 0.0,
        "heightMeters": 3.2,
        "ulpin": "14-4012-0001-3D-F01-C101"
      },
      "geometry": {
        "type": "Polygon",
        "coordinates": [[[20, 0], [30, 0], [30, 8], [20, 8], [20, 0]]]
      }
    },
    {
      "type": "Feature",
      "properties": {
        "id": "A-201",
        "unitNumber": "A-201",
        "floorNumber": 2,
        "area": 80,
        "elevationMeters": 3.2,
        "heightMeters": 3.2,
        "ulpin": "14-4012-0001-3D-F02-A201"
      },
      "geometry": {
        "type": "Polygon",
        "coordinates": [[[0, 0], [10, 0], [10, 8], [0, 8], [0, 0]]]
      }
    },
    {
      "type": "Feature",
      "properties": {
        "id": "B-201",
        "unitNumber": "B-201",
        "floorNumber": 2,
        "area": 80,
        "elevationMeters": 3.2,
        "heightMeters": 3.2,
        "ulpin": "14-4012-0001-3D-F02-B201"
      },
      "geometry": {
        "type": "Polygon",
        "coordinates": [[[10, 0], [20, 0], [20, 8], [10, 8], [10, 0]]]
      }
    },
    {
      "type": "Feature",
      "properties": {
        "id": "C-201",
        "unitNumber": "C-201",
        "floorNumber": 2,
        "area": 80,
        "elevationMeters": 3.2,
        "heightMeters": 3.2,
        "ulpin": "14-4012-0001-3D-F02-C201"
      },
      "geometry": {
        "type": "Polygon",
        "coordinates": [[[20, 0], [30, 0], [30, 8], [20, 8], [20, 0]]]
      }
    },
    {
      "type": "Feature",
      "properties": {
        "id": "A-301",
        "unitNumber": "A-301",
        "floorNumber": 3,
        "area": 80,
        "elevationMeters": 6.4,
        "heightMeters": 3.2,
        "ulpin": "14-4012-0001-3D-F03-A301"
      },
      "geometry": {
        "type": "Polygon",
        "coordinates": [[[0, 0], [10, 0], [10, 8], [0, 8], [0, 0]]]
      }
    },
    {
      "type": "Feature",
      "properties": {
        "id": "B-301",
        "unitNumber": "B-301",
        "floorNumber": 3,
        "area": 80,
        "elevationMeters": 6.4,
        "heightMeters": 3.2,
        "ulpin": "14-4012-0001-3D-F03-B301"
      },
      "geometry": {
        "type": "Polygon",
        "coordinates": [[[10, 0], [20, 0], [20, 8], [10, 8], [10, 0]]]
      }
    },
    {
      "type": "Feature",
      "properties": {
        "id": "C-301",
        "unitNumber": "C-301",
        "floorNumber": 3,
        "area": 80,
        "elevationMeters": 6.4,
        "heightMeters": 3.2,
        "ulpin": "14-4012-0001-3D-F03-C301"
      },
      "geometry": {
        "type": "Polygon",
        "coordinates": [[[20, 0], [30, 0], [30, 8], [20, 8], [20, 0]]]
      }
    },
    {
      "type": "Feature",
      "properties": {
        "id": "A-401",
        "unitNumber": "A-401",
        "floorNumber": 4,
        "area": 80,
        "elevationMeters": 9.6,
        "heightMeters": 3.2,
        "ulpin": "14-4012-0001-3D-F04-A401"
      },
      "geometry": {
        "type": "Polygon",
        "coordinates": [[[0, 0], [10, 0], [10, 8], [0, 8], [0, 0]]]
      }
    },
    {
      "type": "Feature",
      "properties": {
        "id": "B-401",
        "unitNumber": "B-401",
        "floorNumber": 4,
        "area": 80,
        "elevationMeters": 9.6,
        "heightMeters": 3.2,
        "ulpin": "14-4012-0001-3D-F04-B401"
      },
      "geometry": {
        "type": "Polygon",
        "coordinates": [[[10, 0], [20, 0], [20, 8], [10, 8], [10, 0]]]
      }
    },
    {
      "type": "Feature",
      "properties": {
        "id": "C-401",
        "unitNumber": "C-401",
        "floorNumber": 4,
        "area": 80,
        "elevationMeters": 9.6,
        "heightMeters": 3.2,
        "ulpin": "14-4012-0001-3D-F04-C401"
      },
      "geometry": {
        "type": "Polygon",
        "coordinates": [[[20, 0], [30, 0], [30, 8], [20, 8], [20, 0]]]
      }
    },
    {
      "type": "Feature",
      "properties": {
        "id": "A-501",
        "unitNumber": "A-501",
        "floorNumber": 5,
        "area": 80,
        "elevationMeters": 12.8,
        "heightMeters": 3.2,
        "ulpin": "14-4012-0001-3D-F05-A501"
      },
      "geometry": {
        "type": "Polygon",
        "coordinates": [[[0, 0], [10, 0], [10, 8], [0, 8], [0, 0]]]
      }
    },
    {
      "type": "Feature",
      "properties": {
        "id": "B-501",
        "unitNumber": "B-501",
        "floorNumber": 5,
        "area": 80,
        "elevationMeters": 12.8,
        "heightMeters": 3.2,
        "ulpin": "14-4012-0001-3D-F05-B501"
      },
      "geometry": {
        "type": "Polygon",
        "coordinates": [[[10, 0], [20, 0], [20, 8], [10, 8], [10, 0]]]
      }
    },
    {
      "type": "Feature",
      "properties": {
        "id": "C-501",
        "unitNumber": "C-501",
        "floorNumber": 5,
        "area": 80,
        "elevationMeters": 12.8,
        "heightMeters": 3.2,
        "ulpin": "14-4012-0001-3D-F05-C501"
      },
      "geometry": {
        "type": "Polygon",
        "coordinates": [[[20, 0], [30, 0], [30, 8], [20, 8], [20, 0]]]
      }
    }
  ]
}